ONEWEB-0435             
1 51632U 22012L   25228.60552895 -.00000033  00000+0 -13198-3 0  9995
2 51632  87.8779  97.0366 0001935  68.4169 291.7165 13.10375985169423
ONEWEB-0436             
1 51633U 22012M   25228.78411167 -.00000002  00000+0 -38359-4 0  9994
2 51633  87.9025  66.4110 0001743  79.2493 280.8835 13.17649204173594
ONEWEB-0438             
1 51634U 22012N   25228.35984074 -.00000655  00000+0 -19122-2 0  9999
2 51634  87.8775  97.0866 0001822  85.1800 274.9536 13.10374654169426
ONEWEB-0439             
1 51635U 22012P   25229.05037798 -.00000665  00000+0 -19410-2 0  9991
2 51635  87.8777  96.9366 0001798  78.7246 281.4083 13.10374381170773
ONEWEB-0442             
1 51636U 22012Q   25228.47275946  .00000013  00000+0 -36713-6 0  9991
2 51636  87.9024  66.5271 0001898 107.2823 252.8517 13.17651308173544
ONEWEB-0443             
1 51637U 22012R   25228.79590895  .00000006  00000+0 -17219-4 0  9990
2 51637  87.9019  66.4712 0002104  89.4094 270.7279 13.17648156173631
ONEWEB-0444             
1 51638U 22012S   25228.35320486 -.00000611  00000+0 -17870-2 0  9994
2 51638  87.8774  97.0763 0001865  77.2301 282.9034 13.10371548169410
ONEWEB-0445             
1 51639U 22012T   25228.90929019 -.00000126  00000+0 -39846-3 0  9992
2 51639  87.8779  96.9177 0001627  84.4403 275.6910 13.10376012170776
